#dP2021 10 14  0  0  0.00000000      96 __u+U ITR00 FIT  IAC
## 2179 345600.00000000   900.00000000 59501 0.0000000000000
+  127   C01C02C03C04C05C06C07C08C09C10C11C12C13C14C16C19C20
+        C21C22C23C24C25C26C27C28C29C30C32C33C34C35C36C37C38
+        C39C40C41C42C43C44C45C46C59C60E01E02E03E04E05E07E08
+        E09E11E12E13E14E15E18E19E21E24E25E26E27E30E31E33E36
+        G01G02G03G04G05G06G07G08G09G10G12G13G14G15G16G17G18
+        G19G20G21G22G23G24G25G26G27G28G29G30G31G32J01J02J03
+        J07R01R02R03R04R05R06R07R08R09R10R11R12R13R14R15R16
+        R17R18R19R20R21R22R23R24  0  0  0  0  0  0  0  0  0
++         0  0  0  0  0  0  0  0  0  0  0  0  0  0  0  0  0
++         0  0  0  0  0  0  0  0  0  0  0  0  0  0  0  0  0
++         0  0  0  0  0  0  0  0  0  0  0  0  0  0  0  0  0
++         0  0  0  0  0  0  0  0  0  0  0  0  0  0  0  0  0
++         0  0  0  0  0  0  0  0  0  0  0  0  0  0  0  0  0
++         0  0  0  0  0  0  0  0  0  0  0  0  0  0  0  0  0
++         0  0  0  0  0  0  0  0  0  0  0  0  0  0  0  0  0
++         0  0  0  0  0  0  0  0  0  0  0  0  0  0  0  0  0
%c M  cc GPS ccc cccc cccc cccc cccc ccccc ccccc ccccc ccccc
%c cc cc ccc ccc cccc cccc cccc cccc ccccc ccccc ccccc ccccc
%f  0.0000000  0.000000000  0.00000000000  0.000000000000000
%f  0.0000000  0.000000000  0.00000000000  0.000000000000000
%i    0    0    0    0      0      0      0      0         0
%i    0    0    0    0      0      0      0      0         0
/* INFORMATION & ANALYSIS CENTER (IAC)            RAPID DATA
/* S/V CLOCKS ARE ALIGNED TO GNSS TIME                      
/* G:C1WC2W R:C1PC2P E:C1XC5X C:C2IC6I J:C1CC2S             
/* PCV:IGS14_2163 OL/AL:FES2004  NONE     YN ORB:CoN CLK:CoN
*  2021 10 14  4  0  0.00000000
PC01 -34299.231767  24474.691694     -3.966548   -545.805816
PC02   4311.673615  41968.456260    998.745362    251.754421
PC03 -14854.060105  39456.161210   1185.391661    -17.826084
PC04 -39610.521379  14422.479369   -211.240585    206.035689
PC05  21871.839195  36030.542387   1246.388758    267.214361
PC06  -8918.452089  40753.585488   6745.025385    332.020276
PC07  -6259.245673  26686.840771 -32010.042306   -211.967270
PC08 -18575.720533  26498.877202  26938.664217   -866.587556
PC09  -4713.887766  42096.365626  -1785.743208   -182.662504
PC10   2402.953559  29318.759806 -29807.684502      6.515216
PC11  -4841.345585 -24214.328062 -12981.414196    629.886368
PC12   6653.795360 -26795.158768   4210.379948    739.851365
PC13 -10573.624723  27162.783625  30449.491556    441.382803
PC14 -15351.199133 -20805.420751 -10552.340102    587.718271
PC16 -10931.926751  39470.899493  10628.374152   -765.194150
PC19  21615.235843  17582.352475   1430.760635    949.030227
PC20   8228.130691  20732.240769  16758.923698   -793.540317
PC21  10862.691395 -11631.951152 -22915.096959   -931.821816
PC22  22942.932568   4121.546970 -15333.920108   -957.749575
PC23 -26379.339446   4891.444757   7677.501750   -969.898521
PC24   3608.522308 -17867.202929  21135.988354   -972.217058
PC25 -17190.358499  -8312.102394  20340.220495   -840.341437
PC26  19874.521478 -16735.815907  10226.064180    836.466151
PC27 -11865.375098  21993.350771 -12447.757277    612.837949
PC28 -16178.217905   3537.623417 -22455.398733    -15.105488
PC29  11644.995064  16523.282604  19230.807019    460.217214
PC30     24.357533  27590.537967   4234.680125    483.414162
PC32 -10866.509680  11665.512662  22909.448392   -965.309653
PC33 -21686.764207 -17508.826576  -1506.169020   -968.168537
PC34   -563.566335 -27428.583793  -5071.289615   -560.319624
PC35  16113.628488  -3578.321369  22492.256951    -47.302428
PC36  16652.693707   8962.048248 -20493.415213   -778.376892
PC37 -20923.009868  15891.239582  -9348.210482   -874.487004
PC38 -24906.346384  27639.827170  19663.778962    182.131283
PC39 -12161.316785  36952.535419  16445.201568     33.621115
PC40  -9695.818814  20711.589207 -35405.348583    208.282482
PC41 -23106.516258  -4326.087602  15072.620907   -923.605326
PC42  -7436.604799 -20605.739375 -17259.919056   -961.417634
PC43 -11397.738239 -17122.525170 -18857.342248   -958.670707
PC44  11255.936007 -22221.096708  12547.003347    430.704902
PC45  26395.039016  -5131.877281  -7504.037108    573.305666
PC46  -2223.475640  17485.325910 -21615.534312     40.737963
PC59 -32279.077788  27098.795242    142.849325     -0.076373
PC60   7292.890757  41515.293417    -63.198710     -0.613428
PE01 -26277.203454  -9389.193480   9876.380857   -495.043955
PE02  26377.755855   9290.660074  -9717.687635    253.328126
PE03  19224.160438  16886.124264 -14880.224928   -484.901136
PE04 -17052.415600   3400.542389  23953.541810   -877.331718
PE05  10137.903692  27634.649782   3110.131212   -241.930984
PE07   4740.014728 -22148.760158 -19062.502043   -595.810424
PE08  16747.976636  -3852.147908 -24105.734868   5921.974374
PE09  -4396.911915  22239.124525  19022.378020   5498.969800
PE11 -15245.938556  25177.533547   3140.933361   5269.194672
PE12 -21567.996355  12910.640667 -15636.187437   4961.747640
PE13  15491.905042 -25088.983002  -2631.918803    422.574511
PE14  -2198.072421 -28027.129286   4268.900434  -1604.179313
PE15  21488.773733 -12971.101406  15700.441796    786.877906
PE18  -8445.173036  22810.894365 -15182.098727  -1761.903822
PE19 -18590.164036 -18997.327808  13021.563724    401.664730
PE21 -10216.906525 -16314.575880  22492.861923   -693.517394
PE24 -13674.945584  13837.614447 -22304.319393  -1169.964960
PE25   9981.788741  16337.938802 -22561.766010   -549.968838
PE26   -469.566648 -21942.048393 -19866.656262   1232.274382
PE27  12537.145776 -14234.355236  22738.476603   -141.794836
PE30  28209.565286  -2904.777723   8510.949792   2542.072201
PE31 -27739.022857   3786.082542  -9589.780627   -486.752366
PE33 -14801.618945  -6755.757404 -24723.363055   -463.776217
PE36   -402.269906  22398.650695  19346.339033   -275.720577
PG01  11946.827938 -21307.165593 -10272.343493    539.962095
PG02 -20486.793895  12743.111264 -10541.824803   -637.326361
PG03   5431.209695 -14098.584201 -21946.103513   -324.153739
PG04   1861.573469 -24270.138386 -10541.769099   -203.671366
PG05 -19464.306263   7461.328317  16381.715769    -57.594739
PG06 -17412.291567  -1300.788488 -19968.801992     94.176056
PG07  -2591.412444 -17524.789109  20011.136318    262.065191
PG08   8825.667542 -16321.085832  18869.903098    -40.031956
PG09  -7547.187923 -25448.994909    203.983688   -361.801084
PG10  22420.647321  11862.689352   8479.910825   -223.486698
PG12  -7547.648328  13275.747646 -21971.616890   -111.245914
PG13 -13423.447194   8711.897408  21022.864605    199.286458
PG14 -21867.639901 -12775.909405   8093.430188    -18.483762
PG15  -7170.408850  17776.194469  17853.406680   -114.112507
PG16  22597.174167  -1918.375552  13946.658264   -406.699129
PG17 -12548.213501 -19525.096771 -12464.137387    518.860547
PG18   3221.445330  16476.518047  20547.319851    310.492825
PG19 -14857.891412 -11366.504969 -19187.140067     65.586016
PG20 -25458.432393   2166.409974   6706.214307    518.651256
PG21  16858.939569 -20098.719452   -288.475158    147.501873
PG22  13531.704556 -12138.835503 -19126.363186   -489.805808
PG23  13089.119513  15368.396199  17278.620550     45.403986
PG24 -13689.690061  21944.931822  -5258.148180    253.146638
PG25   4518.030933  16273.817390 -20824.672744    224.065748
PG26  26298.501457   4421.910763   1587.681592    144.644518
PG27  13811.436487  -5559.039014  21795.604015   -205.940915
PG28 -24286.168515 -10371.328781   1981.361008    482.956664
PG29   3141.221847  26189.266378  -2828.930680   -425.930000
PG30 -12706.054215  -9563.014727  21356.304462   -482.153178
PG31  19290.348879   -339.798021 -18553.505512   -144.828848
PG32  15329.000937  15688.262893 -14990.777728     -9.976009
PJ01 -25917.277775  21491.014961  30323.323666    172.515538
PJ02 -32247.314571  16305.025376 -17143.701483     -3.464780
PJ03 -22448.307757  30928.072474 -13179.760201     -3.765123
PJ07 -25383.882926  33655.419481     51.615594     -0.089936
PR01  14788.755615  19888.100366   6010.920636     86.655125
PR02  18464.613456  10916.118973 -13822.521906    496.577978
PR03  10605.543762  -4390.987182 -22749.130679     44.670544
PR04  -3246.911091 -16847.014291 -18851.111319    109.290890
PR05 -15102.874540 -20049.250961  -4456.061385     80.658752
PR06 -18639.920313  -9441.265996  14595.333661     -9.572078
PR07 -10070.549021   5083.026979  22904.438136    -40.644453
PR08   3239.108412  16961.872606  18833.197974    -61.479261
PR09 -23783.255540    803.571999   9304.354288     18.157271
PR10 -22889.891898   8706.768689  -7005.666521    -75.961691
PR11  -8826.072485  12067.873268 -20655.891200     50.005149
PR12  10998.144526   8094.896951 -21517.448340    269.896946
PR13  23381.539407   -397.011453 -10198.620002    -62.061918
PR14  22384.676710  -9046.699362   8225.103709     69.884833
PR15   8253.943519 -12054.624459  20934.589008    100.865237
PR16 -12276.006094  -7517.397318  21007.762294    -23.129039
PR17  12558.459830 -16358.569837  15054.893073    466.224741
PR18   7711.688962 -24274.502864   -906.789035     93.704583
PR19   -129.014599 -20069.352859 -15752.438661   -163.036925
PR20 -10235.177203  -2030.390557 -23268.845522    -57.517310
PR21 -12405.101010  17302.886923 -14020.600677   -246.612645
PR22  -7429.035294  24374.261262   1913.215881   -138.783812
PR23   4137.454502  15382.938717  19912.504221    -16.460090
PR24  10960.472930   1239.667704  23018.277067     62.607357
EOF
